[{"OBJECT_NAME":"STARLINK-31974","OBJECT_ID":"2024-100A","EPOCH":"2026-03-09T05:03:21.111264","MEAN_MOTION":15.27569115,"ECCENTRICITY":7.525e-5,"INCLINATION":42.9979,"RA_OF_ASC_NODE":128.0999,"ARG_OF_PERICENTER":191.7836,"MEAN_ANOMALY":168.2999,"EPHEMERIS_TYPE":0,"CLASSIFICATION_TYPE":"U","NORAD_CAT_ID":59885,"ELEMENT_SET_NO":999,"REV_AT_EPOCH":10098,"BSTAR":1.5241405e-5,"MEAN_MOTION_DOT":1.58e-6,"MEAN_MOTION_DDOT":0},{"OBJECT_NAME":"FLOCK 4G-34","OBJECT_ID":"2025-009AT","EPOCH":"2026-03-09T17:34:06.952224","MEAN_MOTION":15.27131464,"ECCENTRICITY":6.743e-5,"INCLINATION":97.4004,"RA_OF_ASC_NODE":151.0149,"ARG_OF_PERICENTER":348.828,"MEAN_ANOMALY":11.2944,"EPHEMERIS_TYPE":0,"CLASSIFICATION_TYPE":"U","NORAD_CAT_ID":62650,"ELEMENT_SET_NO":999,"REV_AT_EPOCH":6372,"BSTAR":0.00049338357,"MEAN_MOTION_DOT":0.00013063,"MEAN_MOTION_DDOT":0}]
